ATLAS CENTAUR 2         
1 00694U 63047A   26160.01238429  .00001326  00000+0  14850-3 0  9995
2 00694  30.3543  45.1090 0545991 165.4120 196.2942 14.12501243144544
THOR AGENA D R/B        
1 00733U 64002A   26160.06349353  .00000174  00000+0  79193-4 0  9997
2 00733  99.1156 178.3572 0032727 354.4611   5.6205 14.34062449251399
SL-3 R/B                
1 00877U 64053B   26160.11811418  .00000100  00000+0  43631-4 0  9991
2 00877  65.0774  63.1719 0081155 263.6420  95.5433 14.61423057280151
SL-8 R/B                
1 02802U 67045B   26160.19706793  .00000203  00000+0  63830-4 0  9999
2 02802  74.0093 177.1820 0063758 163.6160 196.7080 14.45678790102246
SL-8 R/B                
1 03230U 68040B   26160.26627378  .00002597  00000+0  19083-3 0  9998
2 03230  74.0296 126.4893 0026025 280.9293  78.8968 15.03777337103776
OAO 2                   
1 03597U 68110A   26160.19018130  .00000167  00000+0  50115-4 0  9997
2 03597  34.9927 114.3305 0005942 215.7747 144.2546 14.47348648 32369
ISIS 1                  
1 03669U 69009A   26160.22580050  .00000075  00000+0  56005-4 0  9996
2 03669  88.4420 145.2745 1706024 264.3180  76.1812 11.30432834358879
SERT 2                  
1 04327U 70009A   26160.31441605 -.00000011  00000+0  41724-4 0  9995
2 04327  99.2841  98.4501 0004069 298.0618 183.2727 13.58738650792331
SL-3 R/B                
1 05118U 71028B   26160.21273861  .00045535  00000+0  39189-3 0  9992
2 05118  81.2328 298.3169 0013708 309.8003  50.2047 15.68985207  2990
ASTEX 1                 
1 05560U 71089A   26160.07178794  .00000377  00000+0  95710-4 0  9991
2 05560  92.6999 181.2421 0017336 130.2632 230.0094 14.50845046875553
SL-8 R/B                
1 05730U 71119B   26160.02544325  .00003614  00000+0  18689-3 0  9992
2 05730  73.8880   4.7621 0543826 312.3772  43.2529 14.39453290668627
OAO 3 (COPERNICUS)      
1 06153U 72065A   26160.22812030  .00000254  00000+0  56278-4 0  9990
2 06153  35.0044 135.7547 0006816 194.6078 187.4914 14.60055772859587
ATLAS CENTAUR R/B       
1 06155U 72065B   26160.10358086  .00001010  00000+0  14024-3 0  9998
2 06155  35.0003 129.9313 0032876  59.4364 300.9575 14.77904207854798
SL-8 R/B                
1 08459U 75112B   26160.25034252  .00000159  00000+0  60981-4 0  9992
2 08459  74.0598 210.4749 0016843 278.3485  81.5760 14.38242376645032
SL-3 R/B                
1 10114U 77057B   26160.26513862  .00010002  00000+0  19503-3 0  9994
2 10114  97.5844 336.4239 0005776 320.0654  40.0170 15.47718288682482
SEASAT 1                
1 10967U 78064A   26160.28521164  .00000259  00000+0  11080-3 0  9990
2 10967 108.0165 317.7018 0002037 241.1043 118.9898 14.46237249519753
SL-14 R/B               
1 11267U 79011B   26160.06063911  .00000428  00000+0  39561-4 0  9997
2 11267  82.5242   9.8670 0017420 110.2660 250.0435 14.92006633542400
SL-8 R/B                
1 11574U 79089B   26160.29828458  .00000200  00000+0  68434-4 0  9992
2 11574  74.0695 281.4608 0014851  68.4212 291.8525 14.42400426449312
SL-14 R/B               
1 11672U 80005B   26160.26802491  .00000417  00000+0  39521-4 0  9992
2 11672  82.5146 220.3520 0014806 213.1931 146.8361 14.91022479490133
SL-8 R/B                
1 12139U 81003B   26160.22144796  .00012732  00000+0  31445-3 0  9992
2 12139  82.9375 205.1717 0250359 219.0738 139.2183 15.13983097328511
SL-3 R/B                
1 12465U 81046B   26160.21867309  .00009875  00000+0  21429-3 0  9997
2 12465  81.2302 179.6669 0019202  64.0337 296.2882 15.44031903452544
SL-3 R/B                
1 12904U 81103B   26160.29754749  .00003747  00000+0  16172-3 0  9991
2 12904  81.1578 105.9009 0012399 344.2867  15.7978 15.22218620987167
SL-3 R/B                
1 13068U 82013B   26160.20601134  .00002869  00000+0  12118-3 0  9994
2 13068  81.1745  53.4253 0020871 228.7308 131.2128 15.22736508418275
SL-3 R/B                
1 13154U 82039B   26160.28445379  .00002909  00000+0  17349-3 0  9999
2 13154  81.1423 110.2185 0029800  21.9931 338.2565 15.10489867395465
SL-3 R/B                
1 13403U 82079B   26160.18083951  .00003868  00000+0  14959-3 0  9992
2 13403  81.1459  84.9562 0023078 213.1053 146.8738 15.25722572391648
SL-14 R/B               
1 13553U 82092B   26160.12093148  .00000366  00000+0  38283-4 0  9993
2 13553  82.5687  55.8510 0020375   2.4296 114.7569 14.86741981342516
SL-3 R/B                
1 13819U 83010B   26160.30799976  .00013646  00000+0  25004-3 0  9992
2 13819  81.1020 249.6668 0015885  88.8444 271.4622 15.49027917372113
SL-3 R/B                
1 14208U 83075B   26160.27387931  .00008536  00000+0  21246-3 0  9992
2 14208  97.6109 168.4557 0018838 260.0215  99.8905 15.40349377344249
COSMOS 1536             
1 14699U 84013A   26160.09169461  .00004879  00000+0  19404-3 0  9994
2 14699  82.5453  16.9080 0013178 326.9669  33.0744 15.24967462286545
SL-14 R/B               
1 14820U 84027B   26160.26957215  .00000415  00000+0  44472-4 0  9992
2 14820  82.5407 159.1421 0018838  34.5523 325.6913 14.86053643261239
