OBJECT_NAME,OBJECT_ID,EPOCH,MEAN_MOTION,ECCENTRICITY,INCLINATION,RA_OF_ASC_NODE,ARG_OF_PERICENTER,MEAN_ANOMALY,EPHEMERIS_TYPE,CLASSIFICATION_TYPE,NORAD_CAT_ID,ELEMENT_SET_NO,REV_AT_EPOCH,BSTAR,MEAN_MOTION_DOT,MEAN_MOTION_DDOT
ATLAS CENTAUR 2,1963-047A,2026-06-09T00:17:50.002656,14.12501243,.05459915,30.3543,45.1090,165.4120,196.2942,0,U,694,999,14454,.14849737E-3,.1326E-4,0
THOR AGENA D R/B,1964-002A,2026-06-09T01:31:25.840992,14.34062449,.00327275,99.1156,178.3572,354.4611,5.6205,0,U,733,999,25139,.79192726E-4,.174E-5,0
SL-3 R/B,1964-053B,2026-06-09T02:50:05.065152,14.61423057,.00811556,65.0774,63.1719,263.6420,95.5433,0,U,877,999,28015,.43630976E-4,.1E-5,0
SL-8 R/B,1967-045B,2026-06-09T04:43:46.669152,14.45678790,.00637589,74.0093,177.1820,163.6160,196.7080,0,U,2802,999,10224,.63829592E-4,.203E-5,0
SL-8 R/B,1968-040B,2026-06-09T06:23:26.054592,15.03777337,.00260257,74.0296,126.4893,280.9293,78.8968,0,U,3230,999,10377,.19083051E-3,.2597E-4,0
OAO 2,1968-110A,2026-06-09T04:33:51.664320,14.47348648,.0005942,34.9927,114.3305,215.7747,144.2546,0,U,3597,999,3236,.50115111E-4,.167E-5,0
ISIS 1,1969-009A,2026-06-09T05:25:09.163200,11.30432834,.1706024,88.4420,145.2745,264.3180,76.1812,0,U,3669,999,35887,.56005156E-4,.75E-6,0
SERT 2,1970-009A,2026-06-09T07:32:45.546720,13.58738650,.00040696,99.2841,98.4501,298.0618,183.2727,0,U,4327,999,79233,.41723996E-4,-.11E-6,0
SL-3 R/B,1971-028B,2026-06-09T05:06:20.615904,15.68985207,.00137089,81.2328,298.3169,309.8003,50.2047,0,U,5118,999,299,.391894E-3,.45535E-3,0
ASTEX 1,1971-089A,2026-06-09T01:43:22.478016,14.50845046,.00173363,92.6999,181.2421,130.2632,230.0094,0,U,5560,999,87555,.95709526E-4,.377E-5,0
SL-8 R/B,1971-119B,2026-06-09T00:36:38.296800,14.39453290,.0543826,73.8880,4.7621,312.3772,43.2529,0,U,5730,999,66862,.18689458E-3,.3614E-4,0
OAO 3 (COPERNICUS),1972-065A,2026-06-09T05:28:29.593920,14.60055772,.00068164,35.0044,135.7547,194.6078,187.4914,0,U,6153,999,85958,.56278416E-4,.254E-5,0
ATLAS CENTAUR R/B,1972-065B,2026-06-09T02:29:09.386304,14.77904207,.00328767,35.0003,129.9313,59.4364,300.9575,0,U,6155,999,85479,.14023713E-3,.101E-4,0
SL-8 R/B,1975-112B,2026-06-09T06:00:29.593728,14.38242376,.00168435,74.0598,210.4749,278.3485,81.5760,0,U,8459,999,64503,.60981145E-4,.159E-5,0
SL-3 R/B,1977-057B,2026-06-09T06:21:47.976768,15.47718288,.00057761,97.5844,336.4239,320.0654,40.0170,0,U,10114,999,68248,.19502878E-3,.10002E-3,0
SEASAT 1,1978-064A,2026-06-09T06:50:42.285696,14.46237249,.0002037,108.0165,317.7018,241.1043,118.9898,0,U,10967,999,51975,.11079908E-3,.259E-5,0
SL-14 R/B,1979-011B,2026-06-09T01:27:19.219104,14.92006633,.00174208,82.5242,9.8670,110.2660,250.0435,0,U,11267,999,54240,.39560999E-4,.428E-5,0
SL-8 R/B,1979-089B,2026-06-09T07:09:31.787712,14.42400426,.00148518,74.0695,281.4608,68.4212,291.8525,0,U,11574,999,44931,.68434451E-4,.2E-5,0
SL-14 R/B,1980-005B,2026-06-09T06:25:57.352224,14.91022479,.00148062,82.5146,220.3520,213.1931,146.8361,0,U,11672,999,49013,.39520692E-4,.417E-5,0
SL-8 R/B,1981-003B,2026-06-09T05:18:53.103744,15.13983097,.0250359,82.9375,205.1717,219.0738,139.2183,0,U,12139,999,32851,.31444702E-3,.12732E-3,0
SL-3 R/B,1981-046B,2026-06-09T05:14:53.354976,15.44031903,.00192025,81.2302,179.6669,64.0337,296.2882,0,U,12465,999,45254,.21429132E-3,.9875E-4,0
SL-3 R/B,1981-103B,2026-06-09T07:08:28.103136,15.22218620,.00123998,81.1578,105.9009,344.2867,15.7978,0,U,12904,999,98716,.16172033E-3,.3747E-4,0
SL-3 R/B,1982-013B,2026-06-09T04:56:39.379776,15.22736508,.00208713,81.1745,53.4253,228.7308,131.2128,0,U,13068,999,41827,.12117968E-3,.2869E-4,0
SL-3 R/B,1982-039B,2026-06-09T06:49:36.807456,15.10489867,.00298004,81.1423,110.2185,21.9931,338.2565,0,U,13154,999,39546,.17349414E-3,.2909E-4,0
SL-3 R/B,1982-079B,2026-06-09T04:20:24.533664,15.25722572,.00230787,81.1459,84.9562,213.1053,146.8738,0,U,13403,999,39164,.14958652E-3,.3868E-4,0
SL-14 R/B,1982-092B,2026-06-09T02:54:08.479872,14.86741981,.00203753,82.5687,55.8510,2.4296,114.7569,0,U,13553,999,34251,.38282553E-4,.366E-5,0
SL-3 R/B,1983-010B,2026-06-09T07:23:31.179264,15.49027917,.00158851,81.1020,249.6668,88.8444,271.4622,0,U,13819,999,37211,.25003976E-3,.13646E-3,0
SL-3 R/B,1983-075B,2026-06-09T06:34:23.172384,15.40349377,.00188386,97.6109,168.4557,260.0215,99.8905,0,U,14208,999,34424,.21246482E-3,.8536E-4,0
COSMOS 1536,1984-013A,2026-06-09T02:12:02.414304,15.24967462,.00131784,82.5453,16.9080,326.9669,33.0744,0,U,14699,999,28654,.19403916E-3,.4879E-4,0
SL-14 R/B,1984-027B,2026-06-09T06:28:11.033760,14.86053643,.00188388,82.5407,159.1421,34.5523,325.6913,0,U,14820,999,26123,.44472305E-4,.415E-5,0
